IRIDIUM 136             
1 42962U 17061H   24194.59150875  .00000084  00000+0  23013-4 0  9992
2 42962  86.3987 319.7010 0002206 103.7372 256.4070 14.34220101353845
